ORBCOMM FM37            
1 33064U 08031E   24148.34290262  .00002171  00000+0  33716-3 0  9998
2 33064  48.4414  13.5427 0005973 168.2911   2.9724 14.76560086856968
ORBCOMM FM40            
1 33065U 08031F   24148.32385425  .00002558  00000+0  38012-3 0  9996
2 33065  48.4433   2.8432 0007364 177.0892 353.2284 14.77908210857004
VESSELSAT 1             
1 37840U 11058C   24148.68407499  .00000415  00000+0  81858-4 0  9996
2 37840  19.9623 266.2286 0013549 266.8830  93.0024 14.11160379652016
ORBCOMM FM109           
1 40086U 14040A   24148.38053644  .00001378  00000+0  34294-3 0  9992
2 40086  47.0041  36.4126 0002110 330.1669  29.9096 14.56680004524785
ORBCOMM FM107           
1 40087U 14040B   24148.41466049  .00001344  00000+0  33523-3 0  9991
2 40087  47.0058  37.2189 0001775 298.5810  61.4897 14.56691168524865
ORBCOMM FM106           
1 40088U 14040C   24148.42249824  .00001523  00000+0  30046-3 0  9999
2 40088  47.0597 249.0636 0016757  75.3675 284.9072 14.67125723526781
ORBCOMM FM111           
1 40089U 14040D   24148.41792858  .00002415  00000+0  32545-3 0  9996
2 40089  47.0021 148.0925 0032151 151.0502 209.2185 14.81915760532922
ORBCOMM FM104           
1 40090U 14040E   24148.47156405  .00000949  00000+0  25558-3 0  9992
2 40090  47.0061  66.0513 0017437 244.6471 115.2607 14.55185596524411
